*******************************************************************************
 Revised: September 28, 2017           Jupiter                              599
 
 PHYSICAL DATA (updated 2018-Aug-15):
  Mass x10^24 (kg)      = 1898.13+-.19    Density (g/cm^3)       =   1.326
  Equat. radius (1 bar) = 71492+-4 km     Polar radius (km)      =  66854+-10
  Vol. Mean Radius (km) = 69911+-6        Flattening             =   0.06487
  Geometric Albedo      = 0.52            Rocky core mass (Mc/M) =  0.0261
  Sid. rot. period (III)= 9h 55m 29.71 s  Sid. rot. rate (rad/s) =  0.00017585 
  Mean solar day, hrs   = ~9.9259         
  GM (km^3/s^2)         = 126686534.911   GM 1-sigma (km^3/s^2)  =  +-1.5
  Equ. grav, ge (m/s^2) = 24.79           Pol. grav, gp (m/s^2)  =  28.34
  Vis. magnitude V(1,0) = -9.40
  Vis. mag. (opposition)= -2.70           Obliquity to orbit     =  3.13 deg
  Sidereal orbit period = 11.861982204 y  Sidereal orbit period  = 4332.589 d
  Mean daily motion     = 0.0831294 deg/d Mean orbit speed, km/s = 13.0697
  Atmos. temp. (1 bar)  = 165+-5 K        Escape speed, km/s    =  59.5           
  A_roche(ice)/Rp       =  2.76           Hill's sphere rad. Rp  = 740
                                 Perihelion   Aphelion     Mean
  Solar Constant (W/m^2)         56           46           51
  Maximum Planetary IR (W/m^2)   13.7         13.4         13.6
  Minimum Planetary IR (W/m^2)   13.7         13.4         13.6
*******************************************************************************
 
 
*******************************************************************************
Ephemeris / WWW_USER Thu May  7 13:08:02 2020 Pasadena, USA      / Horizons    
*******************************************************************************
Target body name: Jupiter (599)                   {source: jup310}
Center body name: Sun (10)                        {source: DE431mx}
Center-site name: BODY CENTER
*******************************************************************************
Start time      : A.D. 1990-Jan-01 00:00:00.0000 TDB
Stop  time      : A.D. 2020-Jan-01 00:00:00.0000 TDB
Step-size       : 1440 minutes
*******************************************************************************
Center geodetic : 0.00000000,0.00000000,0.0000000 {E-lon(deg),Lat(deg),Alt(km)}
Center cylindric: 0.00000000,0.00000000,0.0000000 {E-lon(deg),Dxy(km),Dz(km)}
Center radii    : 696000.0 x 696000.0 x 696000.0 k{Equator, meridian, pole}    
Output units    : AU-D                                                         
Output type     : GEOMETRIC cartesian states
Output format   : 2 (position and velocity)
Reference frame : ICRF/J2000.0                                                 
Coordinate systm: Ecliptic and Mean Equinox of Reference Epoch                 
*******************************************************************************
            JDTDB,            Calendar Date (TDB),                      X,                      Y,                      Z,                     VX,                     VY,                     VZ,
**************************************************************************************************************************************************************************************************
$$SOE
2451496.500000000, A.D. 1999-Nov-14 00:00:00.0000,  4.211139150716712E+00,  2.618011153471814E+00, -1.051581446210261E-01, -4.086121982934177E-03,  6.769878330932436E-03,  6.341736976801272E-05,
2451497.500000000, A.D. 1999-Nov-15 00:00:00.0000,  4.207048433705891E+00,  2.624777243461013E+00, -1.050946147865552E-01, -4.094974741917336E-03,  6.763047255887758E-03,  6.367332426816443E-05,
2451498.500000000, A.D. 1999-Nov-16 00:00:00.0000,  4.202948044439391E+00,  2.631537709154690E+00, -1.050307991278183E-01, -4.105966468364448E-03,  6.757171937582305E-03,  6.393086841072546E-05,
2451499.500000000, A.D. 1999-Nov-17 00:00:00.0000,  4.198837451699524E+00,  2.638291590297583E+00, -1.049667365161367E-01, -4.115414268444267E-03,  6.751220949442421E-03,  6.421462481951574E-05,
2451500.500000000, A.D. 1999-Nov-18 00:00:00.0000,  4.194716364245884E+00,  2.645039648416612E+00, -1.049024004897879E-01, -4.126300189098254E-03,  6.744414321945561E-03,  6.444683809517231E-05,
2451501.500000000, A.D. 1999-Nov-19 00:00:00.0000,  4.190585347323500E+00,  2.651781303490430E+00, -1.048378047769876E-01, -4.136478520950666E-03,  6.739162696949186E-03,  6.474262238647817E-05,
2451502.500000000, A.D. 1999-Nov-20 00:00:00.0000,  4.186443049883270E+00,  2.658516728391767E+00, -1.047729643569794E-01, -4.147379291678814E-03,  6.731510880022156E-03,  6.494372975560164E-05,
2451503.500000000, A.D. 1999-Nov-21 00:00:00.0000,  4.182290658449467E+00,  2.665245156834906E+00, -1.047078861431266E-01, -4.157897613876410E-03,  6.725082736798694E-03,  6.519545993533044E-05,
2451504.500000000, A.D. 1999-Nov-22 00:00:00.0000,  4.178128059549623E+00,  2.671966212069075E+00, -1.046425870541948E-01, -4.166776714585531E-03,  6.717661988766311E-03,  6.543247066134508E-05,
2451505.500000000, A.D. 1999-Nov-23 00:00:00.0000,  4.173956117233634E+00,  2.678681237399946E+00, -1.045770096618177E-01, -4.177449534726028E-03,  6.711744535115297E-03,  6.569471959857896E-05,
2451506.500000000, A.D. 1999-Nov-24 00:00:00.0000,  4.169774098470960E+00,  2.685389455422205E+00, -1.045111902744914E-01, -4.186596188663290E-03,  6.705359729707340E-03,  6.596855153098580E-05,
2451507.500000000, A.D. 1999-Nov-25 00:00:00.0000,  4.165581978680788E+00,  2.692091725266248E+00, -1.044450947694500E-01, -4.197329037194219E-03,  6.698603256792629E-03,  6.620629288974159E-05,
2451508.500000000, A.D. 1999-Nov-26 00:00:00.0000,  4.161380152794846E+00,  2.698787391338349E+00, -1.043787419692260E-01, -4.206965830035232E-03,  6.693187809984021E-03,  6.650560305589719E-05,
2451509.500000000, A.D. 1999-Nov-27 00:00:00.0000,  4.157167383673909E+00,  2.705477006148008E+00, -1.043121321442047E-01, -4.217898893182181E-03,  6.685686875507653E-03,  6.671221864481804E-05,
2451510.500000000, A.D. 1999-Nov-28 00:00:00.0000,  4.152944655645074E+00,  2.712159587953345E+00, -1.042452829955977E-01, -4.228109781131019E-03,  6.679381457499810E-03,  6.697406335224824E-05,
2451511.500000000, A.D. 1999-Nov-29 00:00:00.0000,  4.148711722338586E+00,  2.718834937097579E+00, -1.041782066050742E-01, -4.237107566054704E-03,  6.671797849248099E-03,  6.720486801994961E-05,
2451512.500000000, A.D. 1999-Nov-30 00:00:00.0000,  4.144469645375648E+00,  2.725504176420677E+00, -1.041108506373977E-01, -4.247566928818437E-03,  6.666143396704711E-03,  6.748043874535740E-05,
2451513.500000000, A.D. 1999-Dec-01 00:00:00.0000,  4.140217402971813E+00,  2.732166717742009E+00, -1.040432495637637E-01, -4.256754812740269E-03,  6.659577148495334E-03,  6.774783417707579E-05,
2451514.500000000, A.D. 1999-Dec-02 00:00:00.0000,  4.135955141505306E+00,  2.738823348099332E+00, -1.039753686998339E-01, -4.267631917160497E-03,  6.653033023317725E-03,  6.799254545480086E-05,
2451515.500000000, A.D. 1999-Dec-03 00:00:00.0000,  4.131683001755151E+00,  2.745473261176149E+00, -1.039072353558256E-01, -4.277145635532071E-03,  6.647385174795712E-03,  6.828733332240293E-05,
2451516.500000000, A.D. 1999-Dec-04 00:00:00.0000,  4.127399932895706E+00,  2.752117199723990E+00, -1.038388402911571E-01, -4.288421516556722E-03,  6.639955771455634E-03,  6.849296966495358E-05,
2451517.500000000, A.D. 1999-Dec-05 00:00:00.0000,  4.123106703230827E+00,  2.758753877319835E+00, -1.037702151833252E-01, -4.298584363560219E-03,  6.633461451336213E-03,  6.875107360496840E-05,
2451518.500000000, A.D. 1999-Dec-06 00:00:00.0000,  4.118803084512836E+00,  2.765383181176139E+00, -1.037013680733854E-01, -4.307901954131806E-03,  6.625435518867476E-03,  6.896397263811603E-05,
2451519.500000000, A.D. 1999-Dec-07 00:00:00.0000,  4.114490397582986E+00,  2.772005903077696E+00, -1.036322546887032E-01, -4.318113768955342E-03,  6.619618539333878E-03,  6.923941020426744E-05,
2451520.500000000, A.D. 1999-Dec-08 00:00:00.0000,  4.110167528990648E+00,  2.778621694435418E+00, -1.035629031884918E-01, -4.327280180650960E-03,  6.612531162420610E-03,  6.948994369082181E-05,
2451521.500000000, A.D. 1999-Dec-09 00:00:00.0000,  4.105834909192160E+00,  2.785231253665681E+00, -1.034932777052493E-01, -4.337994389041545E-03,  6.605927235085882E-03,  6.973682110555461E-05,
2451522.500000000, A.D. 1999-Dec-10 00:00:00.0000,  4.101492513263806E+00,  2.791833778576150E+00, -1.034234076070693E-01, -4.347107740203339E-03,  6.599823574725722E-03,  7.002317609778618E-05,
2451523.500000000, A.D. 1999-Dec-11 00:00:00.0000,  4.097139595730984E+00,  2.798430261352426E+00, -1.033532706723377E-01, -4.358299225522515E-03,  6.592479746722120E-03,  7.023414141842839E-05,
2451524.500000000, A.D. 1999-Dec-12 00:00:00.0000,  4.092776667309455E+00,  2.805019306907477E+00, -1.032829067231686E-01, -4.368056383069891E-03,  6.585846098675600E-03,  7.049455054017815E-05,
2451525.500000000, A.D. 1999-Dec-13 00:00:00.0000,  4.088403534390179E+00,  2.811601017553250E+00, -1.032123152697847E-01, -4.377421829058117E-03,  6.577675869456707E-03,  7.070298087001137E-05,
2451526.500000000, A.D. 1999-Dec-14 00:00:00.0000,  4.084021616823148E+00,  2.818175931601251E+00, -1.031414598180506E-01, -4.387152321948897E-03,  6.571954128742583E-03,  7.098970460857219E-05,
2451527.500000000, A.D. 1999-Dec-15 00:00:00.0000,  4.079629661489126E+00,  2.824744053676056E+00, -1.030703589172427E-01, -4.396284222625104E-03,  6.564747449997957E-03,  7.123656236556451E-05,
2451528.500000000, A.D. 1999-Dec-16 00:00:00.0000,  4.075228209823694E+00,  2.831305963703687E+00, -1.029989791317777E-01, -4.406845722669478E-03,  6.558448556232820E-03,  7.149733169435869E-05,
2451529.500000000, A.D. 1999-Dec-17 00:00:00.0000,  4.070816934942501E+00,  2.837860902565470E+00, -1.029273521876863E-01, -4.415828040806919E-03,  6.552174747499990E-03,  7.178074438219856E-05,
